CCSDS_OMM_VERS = 2.0
CREATION_DATE  = 
ORIGINATOR     = 

OBJECT_NAME    = YOTSUBA-KULOVER
OBJECT_ID      = 1998-067XN
CENTER_NAME    = EARTH
REF_FRAME      = TEME
TIME_SYSTEM    = UTC
MEAN_ELEMENT_THEORY = SGP/SGP4

EPOCH          = 2026-02-21T07:04:32.945664
MEAN_MOTION    = 15.74362167
ECCENTRICITY   = .00055571
INCLINATION    = 51.6233
RA_OF_ASC_NODE = 141.9079
ARG_OF_PERICENTER = 341.7546
MEAN_ANOMALY   = 18.3253

EPHEMERIS_TYPE = 0
CLASSIFICATION_TYPE = U
NORAD_CAT_ID   = 65941
ELEMENT_SET_NO = 999
REV_AT_EPOCH   = 2091
BSTAR          = .10012844E-2
MEAN_MOTION_DOT = .150125E-2
MEAN_MOTION_DDOT = 0

CCSDS_OMM_VERS = 2.0
CREATION_DATE  = 
ORIGINATOR     = 

OBJECT_NAME    = BOTAN
OBJECT_ID      = 1998-067XP
CENTER_NAME    = EARTH
REF_FRAME      = TEME
TIME_SYSTEM    = UTC
MEAN_ELEMENT_THEORY = SGP/SGP4

EPOCH          = 2026-02-21T06:52:49.855296
MEAN_MOTION    = 15.95780667
ECCENTRICITY   = .00098703
INCLINATION    = 51.6141
RA_OF_ASC_NODE = 136.5127
ARG_OF_PERICENTER = 359.4528
MEAN_ANOMALY   = 0.6467

EPHEMERIS_TYPE = 0
CLASSIFICATION_TYPE = U
NORAD_CAT_ID   = 65942
ELEMENT_SET_NO = 999
REV_AT_EPOCH   = 2098
BSTAR          = .15339943E-2
MEAN_MOTION_DOT = .637479E-2
MEAN_MOTION_DDOT = .18189646E-3

CCSDS_OMM_VERS = 2.0
CREATION_DATE  = 
ORIGINATOR     = 

OBJECT_NAME    = E-KAGAKU-1
OBJECT_ID      = 1998-067XQ
CENTER_NAME    = EARTH
REF_FRAME      = TEME
TIME_SYSTEM    = UTC
MEAN_ELEMENT_THEORY = SGP/SGP4

EPOCH          = 2026-02-21T05:35:52.149408
MEAN_MOTION    = 15.74172048
ECCENTRICITY   = .00056391
INCLINATION    = 51.6261
RA_OF_ASC_NODE = 142.2610
ARG_OF_PERICENTER = 351.4881
MEAN_ANOMALY   = 8.6021

EPHEMERIS_TYPE = 0
CLASSIFICATION_TYPE = U
NORAD_CAT_ID   = 65943
ELEMENT_SET_NO = 999
REV_AT_EPOCH   = 2090
BSTAR          = .10173273E-2
MEAN_MOTION_DOT = .151313E-2
MEAN_MOTION_DDOT = 0

CCSDS_OMM_VERS = 2.0
CREATION_DATE  = 
ORIGINATOR     = 

OBJECT_NAME    = HRC MONOBLOCK CAMERA
OBJECT_ID      = 1998-067XR
CENTER_NAME    = EARTH
REF_FRAME      = TEME
TIME_SYSTEM    = UTC
MEAN_ELEMENT_THEORY = SGP/SGP4

EPOCH          = 2026-02-21T10:36:47.129760
MEAN_MOTION    = 15.60407540
ECCENTRICITY   = .0002622
INCLINATION    = 51.6290
RA_OF_ASC_NODE = 147.4180
ARG_OF_PERICENTER = 30.9806
MEAN_ANOMALY   = 329.1341

EPHEMERIS_TYPE = 0
CLASSIFICATION_TYPE = U
NORAD_CAT_ID   = 66052
ELEMENT_SET_NO = 999
REV_AT_EPOCH   = 1985
BSTAR          = .56292E-3
MEAN_MOTION_DOT = .46889E-3
MEAN_MOTION_DDOT = 0

CCSDS_OMM_VERS = 2.0
CREATION_DATE  = 
ORIGINATOR     = 

OBJECT_NAME    = HTV-X1
OBJECT_ID      = 2025-241A
CENTER_NAME    = EARTH
REF_FRAME      = TEME
TIME_SYSTEM    = UTC
MEAN_ELEMENT_THEORY = SGP/SGP4

EPOCH          = 2026-02-21T05:58:25.424832
MEAN_MOTION    = 15.48178501
ECCENTRICITY   = .00085229
INCLINATION    = 51.6322
RA_OF_ASC_NODE = 153.6219
ARG_OF_PERICENTER = 117.8535
MEAN_ANOMALY   = 242.3318

EPHEMERIS_TYPE = 0
CLASSIFICATION_TYPE = U
NORAD_CAT_ID   = 66174
ELEMENT_SET_NO = 999
REV_AT_EPOCH   = 51
BSTAR          = .21781902E-3
MEAN_MOTION_DOT = .11241E-3
MEAN_MOTION_DDOT = 0

CCSDS_OMM_VERS = 2.0
CREATION_DATE  = 
ORIGINATOR     = 

OBJECT_NAME    = SZ-21 MODULE
OBJECT_ID      = 2025-246C
CENTER_NAME    = EARTH
REF_FRAME      = TEME
TIME_SYSTEM    = UTC
MEAN_ELEMENT_THEORY = SGP/SGP4

EPOCH          = 2026-02-21T09:14:04.310304
MEAN_MOTION    = 15.67228178
ECCENTRICITY   = .0001649
INCLINATION    = 41.4754
RA_OF_ASC_NODE = 303.6299
ARG_OF_PERICENTER = 294.6489
MEAN_ANOMALY   = 65.4180

EPHEMERIS_TYPE = 0
CLASSIFICATION_TYPE = U
NORAD_CAT_ID   = 66515
ELEMENT_SET_NO = 999
REV_AT_EPOCH   = 1551
BSTAR          = .3196E-3
MEAN_MOTION_DOT = .35146E-3
MEAN_MOTION_DDOT = 0

CCSDS_OMM_VERS = 2.0
CREATION_DATE  = 
ORIGINATOR     = 

OBJECT_NAME    = SHENZHOU-22
OBJECT_ID      = 2025-272A
CENTER_NAME    = EARTH
REF_FRAME      = TEME
TIME_SYSTEM    = UTC
MEAN_ELEMENT_THEORY = SGP/SGP4

EPOCH          = 2026-02-21T03:18:05.378400
MEAN_MOTION    = 15.59957331
ECCENTRICITY   = .00048286
INCLINATION    = 41.4672
RA_OF_ASC_NODE = 308.8199
ARG_OF_PERICENTER = 160.2979
MEAN_ANOMALY   = 199.8047

EPHEMERIS_TYPE = 0
CLASSIFICATION_TYPE = U
NORAD_CAT_ID   = 66645
ELEMENT_SET_NO = 999
REV_AT_EPOCH   = 26764
BSTAR          = .29956101E-3
MEAN_MOTION_DOT = .24626E-3
MEAN_MOTION_DDOT = 0

CCSDS_OMM_VERS = 2.0
CREATION_DATE  = 
ORIGINATOR     = 

OBJECT_NAME    = SOYUZ-MS 28
OBJECT_ID      = 2025-275A
CENTER_NAME    = EARTH
REF_FRAME      = TEME
TIME_SYSTEM    = UTC
MEAN_ELEMENT_THEORY = SGP/SGP4

EPOCH          = 2026-02-21T10:37:16.613760
MEAN_MOTION    = 15.48182148
ECCENTRICITY   = .0008525
INCLINATION    = 51.6322
RA_OF_ASC_NODE = 152.6650
ARG_OF_PERICENTER = 118.7039
MEAN_ANOMALY   = 241.4807

EPHEMERIS_TYPE = 0
CLASSIFICATION_TYPE = U
NORAD_CAT_ID   = 66664
ELEMENT_SET_NO = 999
REV_AT_EPOCH   = 55381
BSTAR          = .20939E-3
MEAN_MOTION_DOT = .10789E-3
MEAN_MOTION_DDOT = 0

CCSDS_OMM_VERS = 2.0
CREATION_DATE  = 
ORIGINATOR     = 

OBJECT_NAME    = DUPLEX
OBJECT_ID      = 1998-067XS
CENTER_NAME    = EARTH
REF_FRAME      = TEME
TIME_SYSTEM    = UTC
MEAN_ELEMENT_THEORY = SGP/SGP4

EPOCH          = 2026-02-19T20:31:31.993824
MEAN_MOTION    = 15.54966738
ECCENTRICITY   = .00015348
INCLINATION    = 51.6297
RA_OF_ASC_NODE = 158.5697
ARG_OF_PERICENTER = 73.8689
MEAN_ANOMALY   = 286.2471

EPHEMERIS_TYPE = 0
CLASSIFICATION_TYPE = U
NORAD_CAT_ID   = 66906
ELEMENT_SET_NO = 999
REV_AT_EPOCH   = 1235
BSTAR          = .46566264E-3
MEAN_MOTION_DOT = .31428E-3
MEAN_MOTION_DDOT = 0

CCSDS_OMM_VERS = 2.0
CREATION_DATE  = 
ORIGINATOR     = 

OBJECT_NAME    = ISS OBJECT XT
OBJECT_ID      = 1998-067XT
CENTER_NAME    = EARTH
REF_FRAME      = TEME
TIME_SYSTEM    = UTC
MEAN_ELEMENT_THEORY = SGP/SGP4

EPOCH          = 2026-02-21T10:40:33.749184
MEAN_MOTION    = 15.64519157
ECCENTRICITY   = .0003411
INCLINATION    = 51.6265
RA_OF_ASC_NODE = 148.1798
ARG_OF_PERICENTER = 351.3573
MEAN_ANOMALY   = 8.7362

EPHEMERIS_TYPE = 0
CLASSIFICATION_TYPE = U
NORAD_CAT_ID   = 66907
ELEMENT_SET_NO = 999
REV_AT_EPOCH   = 1263
BSTAR          = .12423E-2
MEAN_MOTION_DOT = .123444E-2
MEAN_MOTION_DDOT = 0

CCSDS_OMM_VERS = 2.0
CREATION_DATE  = 
ORIGINATOR     = 

OBJECT_NAME    = ISS OBJECT XU
OBJECT_ID      = 1998-067XU
CENTER_NAME    = EARTH
REF_FRAME      = TEME
TIME_SYSTEM    = UTC
MEAN_ELEMENT_THEORY = SGP/SGP4

EPOCH          = 2026-02-21T10:39:14.954976
MEAN_MOTION    = 15.64567580
ECCENTRICITY   = .0003378
INCLINATION    = 51.6262
RA_OF_ASC_NODE = 148.1704
ARG_OF_PERICENTER = 355.4388
MEAN_ANOMALY   = 4.6576

EPHEMERIS_TYPE = 0
CLASSIFICATION_TYPE = U
NORAD_CAT_ID   = 66908
ELEMENT_SET_NO = 999
REV_AT_EPOCH   = 1263
BSTAR          = .12367E-2
MEAN_MOTION_DOT = .123111E-2
MEAN_MOTION_DDOT = 0

CCSDS_OMM_VERS = 2.0
CREATION_DATE  = 
ORIGINATOR     = 

OBJECT_NAME    = SILVERSAT
OBJECT_ID      = 1998-067XV
CENTER_NAME    = EARTH
REF_FRAME      = TEME
TIME_SYSTEM    = UTC
MEAN_ELEMENT_THEORY = SGP/SGP4

EPOCH          = 2026-02-21T11:15:36.863424
MEAN_MOTION    = 15.66462804
ECCENTRICITY   = .0004276
INCLINATION    = 51.6263
RA_OF_ASC_NODE = 147.5901
ARG_OF_PERICENTER = 349.0523
MEAN_ANOMALY   = 11.0379

EPHEMERIS_TYPE = 0
CLASSIFICATION_TYPE = U
NORAD_CAT_ID   = 66909
ELEMENT_SET_NO = 999
REV_AT_EPOCH   = 1264
BSTAR          = .1374E-2
MEAN_MOTION_DOT = .148121E-2
MEAN_MOTION_DDOT = 0

