YOTSUBA-KULOVER         
1 65941U 98067XN  26052.29482576  .00150125  00000+0  10013-2 0  9993
2 65941  51.6233 141.9079 0005557 341.7546  18.3253 15.74362167 20916
BOTAN                   
1 65942U 98067XP  26052.28668814  .00637479  18190-3  15340-2 0  9997
2 65942  51.6141 136.5127 0009870 359.4528   0.6467 15.95780667 20987
E-KAGAKU-1              
1 65943U 98067XQ  26052.23324247  .00151313  00000+0  10173-2 0  9996
2 65943  51.6261 142.2610 0005639 351.4881   8.6021 15.74172048 20906
HRC MONOBLOCK CAMERA    
1 66052U 98067XR  26052.44221215  .00046889  00000+0  56292-3 0  9996
2 66052  51.6290 147.4180 0002622  30.9806 329.1341 15.60407540 19855
HTV-X1                  
1 66174U 25241A   26052.24890538  .00011241  00000+0  21782-3 0  9993
2 66174  51.6322 153.6219 0008522 117.8535 242.3318 15.48178501   518
SZ-21 MODULE            
1 66515U 25246C   26052.38477211  .00035146  00000+0  31960-3 0  9990
2 66515  41.4754 303.6299 0001649 294.6489  65.4180 15.67228178 15517
SHENZHOU-22             
1 66645U 25272A   26052.13756225  .00024626  00000+0  29956-3 0  9994
2 66645  41.4672 308.8199 0004828 160.2979 199.8047 15.59957331267648
SOYUZ-MS 28             
1 66664U 25275A   26052.44255340  .00010789  00000+0  20939-3 0  9991
2 66664  51.6322 152.6650 0008525 118.7039 241.4807 15.48182148553813
DUPLEX                  
1 66906U 98067XS  26050.85523141  .00031428  00000+0  46566-3 0  9996
2 66906  51.6297 158.5697 0001534  73.8689 286.2471 15.54966738 12359
ISS OBJECT XT           
1 66907U 98067XT  26052.44483506  .00123444  00000+0  12423-2 0  9998
2 66907  51.6265 148.1798 0003411 351.3573   8.7362 15.64519157 12631
ISS OBJECT XU           
1 66908U 98067XU  26052.44392309  .00123111  00000+0  12367-2 0  9997
2 66908  51.6262 148.1704 0003378 355.4388   4.6576 15.64567580 12632
SILVERSAT               
1 66909U 98067XV  26052.46917666  .00148121  00000+0  13740-2 0  9993
2 66909  51.6263 147.5901 0004276 349.0523  11.0379 15.66462804 12643
